NORAD_CAT_ID,OBJECT_NAME,OBJECT_TYPE,EPOCH,MEAN_MOTION,ECCENTRICITY,INCLINATION,RA_OF_ASC_NODE,ARG_OF_PERICENTER,MEAN_ANOMALY,BSTAR,MEAN_MOTION_DOT,MEAN_MOTION_DDOT,TLE_LINE0,TLE_LINE1,TLE_LINE2,SEMIMAJOR_AXIS,PERIOD,APOGEE,PERIGEE,DECAYED
53823.0,STARLINK-4748,PAYLOAD,2024-03-22 20:21:12,15.08848526,0.000135,53.2159,237.1289,95.7935,264.3211,0.00023284,3.421e-05,0.0,0 STARLINK-4748,1 53823U 22114F   24082.84806423  .00003421  00000-0  23284-3 0  9994,2 53823  53.2159 237.1289 0001350  95.7935 264.3211 15.08848526 85242,6917.854,95.437,540.653,538.785,0.0
53823.0,STARLINK-4748,PAYLOAD,2024-03-23 13:50:27,15.08837634,0.0002044,53.2153,233.8548,133.7498,226.3663,-4.6922e-05,-1.035e-05,0.0,0 STARLINK-4748,1 53823U 22114F   24083.57670816 -.00001035  00000-0 -46922-4 0  9996,2 53823  53.2153 233.8548 0002044 133.7498 226.3663 15.08837634 84814,6917.888,95.438,541.167,538.339,0.0
53823.0,STARLINK-4748,PAYLOAD,2024-03-23 20:12:00,15.0883269,0.0001596,53.216,232.6629,119.5253,240.5898,-0.00010722,-1.994e-05,0.0,0 STARLINK-4748,1 53823U 22114F   24083.84167256 -.00001994  00000-0 -10722-3 0  9997,2 53823  53.2160 232.6629 0001596 119.5253 240.5898 15.08832690 85390,6917.903,95.438,540.872,538.664,0.0
53823.0,STARLINK-4748,PAYLOAD,2024-03-24 13:41:15,15.08835884,0.0001353,53.2164,229.3946,84.9028,275.2118,-1.448e-05,-5.18e-06,0.0,0 STARLINK-4748,1 53823U 22114F   24084.57031463 -.00000518  00000-0 -14480-4 0  9995,2 53823  53.2164 229.3946 0001353  84.9028 275.2118 15.08835884 85506,6917.893,95.438,540.694,538.822,0.0
53823.0,STARLINK-4748,PAYLOAD,2024-03-24 15:16:38,15.08837756,0.0001347,53.2159,229.0961,82.5712,277.5433,1.0145e-05,-1.26e-06,0.0,0 STARLINK-4748,1 53823U 22114F   24084.63655378 -.00000126  00000-0  10145-4 0  9997,2 53823  53.2159 229.0961 0001347  82.5712 277.5433 15.08837756 84976,6917.887,95.438,540.684,538.82,0.0
53823.0,STARLINK-4748,PAYLOAD,2024-03-25 02:24:19,15.08860081,0.0001119,53.2165,227.0204,84.1042,276.0078,0.00033575,5.063e-05,0.0,0 STARLINK-4748,1 53823U 22114F   24085.10022617  .00005063  00000-0  33575-3 0  9999,2 53823  53.2165 227.0204 0001119  84.1042 276.0078 15.08860081 85047,6917.819,95.436,540.458,538.91,0.0
53823.0,STARLINK-4748,PAYLOAD,2024-03-25 13:32:02,15.08831806,0.0001423,53.2163,224.9317,89.9032,270.2123,0.00014011,1.942e-05,0.0,0 STARLINK-4748,1 53823U 22114F   24085.56391861  .00001942  00000-0  14011-3 0  9995,2 53823  53.2163 224.9317 0001423  89.9032 270.2123 15.08831806 85114,6917.905,95.438,540.755,538.786,0.0
53823.0,STARLINK-4748,PAYLOAD,2024-03-25 18:18:11,15.08848366,0.000142,53.2165,224.0467,101.9205,258.1947,0.00036659,5.552e-05,0.0,0 STARLINK-4748,1 53823U 22114F   24085.76263228  .00005552  00000-0  36659-3 0  9995,2 53823  53.2165 224.0467 0001420 101.9205 258.1947 15.08848366 85148,6917.855,95.437,540.702,538.737,0.0
53823.0,STARLINK-4748,PAYLOAD,2024-03-26 13:22:51,15.0880562,8.37e-05,53.2168,220.4775,64.4205,295.6873,-0.00031562,-5.302e-05,0.0,0 STARLINK-4748,1 53823U 22114F   24086.55753950 -.00005302  00000-0 -31562-3 0  9992,2 53823  53.2168 220.4775 0000837  64.4205 295.6873 15.08805620 85260,6917.985,95.44,540.43,539.271,0.0
53823.0,STARLINK-4748,PAYLOAD,2024-03-26 14:58:14,15.08803566,0.0001182,53.2169,220.1804,105.0344,255.0779,-0.00050029,-8.233e-05,0.0,0 STARLINK-4748,1 53823U 22114F   24086.62378010 -.00008233  00000-0 -50029-3 0  9995,2 53823  53.2169 220.1804 0001182 105.0344 255.0779 15.08803566 85814,6917.992,95.44,540.674,539.039,0.0
53823.0,STARLINK-4748,PAYLOAD,2024-03-26 16:33:37,15.08823204,0.0001407,53.2161,219.8837,90.3771,269.7382,-6.3352e-05,-1.296e-05,0.0,0 STARLINK-4748,1 53823U 22114F   24086.69001221 -.00001296  00000-0 -63352-4 0  9995,2 53823  53.2161 219.8837 0001407  90.3771 269.7382 15.08823204 85281,6917.932,95.439,540.77,538.823,0.0
53823.0,STARLINK-4748,PAYLOAD,2024-03-27 02:05:55,15.08838073,0.0001231,53.2172,218.0978,96.1492,263.9641,5.0544e-05,5.17e-06,0.0,0 STARLINK-4748,1 53823U 22114F   24087.08744557  .00000517  00000-0  50544-4 0  9997,2 53823  53.2172 218.0978 0001231  96.1492 263.9641 15.08838073 85340,6917.886,95.438,540.603,538.9,0.0
53823.0,STARLINK-4748,PAYLOAD,2024-03-27 14:49:00,15.08850228,0.0001305,53.2168,215.723,85.866,274.2481,0.0002477,3.658e-05,0.0,0 STARLINK-4748,1 53823U 22114F   24087.61736295  .00003658  00000-0  24770-3 0  9996,2 53823  53.2168 215.7230 0001305  85.8660 274.2481 15.08850228 85965,6917.849,95.437,540.617,538.811,0.0
53823.0,STARLINK-4748,PAYLOAD,2024-03-28 13:04:24,15.08837915,0.0001988,53.2172,211.5592,48.5653,311.551,0.00056107,8.652e-05,0.0,0 STARLINK-4748,1 53823U 22114F   24088.54473320  .00008652  00000-0  56107-3 0  9994,2 53823  53.2172 211.5592 0001988  48.5653 311.5510 15.08837915 85562,6917.887,95.438,541.127,538.376,0.0
53823.0,STARLINK-4748,PAYLOAD,2024-03-28 14:39:47,15.08840828,0.0001344,53.2175,211.2612,101.9152,258.1991,0.00050898,7.822e-05,0.0,0 STARLINK-4748,1 53823U 22114F   24088.61096809  .00007822  00000-0  50898-3 0  9994,2 53823  53.2175 211.2612 0001344 101.9152 258.1991 15.08840828 86117,6917.878,95.438,540.673,538.813,0.0
53823.0,STARLINK-4748,PAYLOAD,2024-03-29 12:55:11,15.08833944,0.0001469,53.2179,207.0997,95.6646,264.4514,0.00022625,3.314e-05,0.0,0 STARLINK-4748,1 53823U 22114F   24089.53832739  .00003314  00000-0  22625-3 0  9995,2 53823  53.2179 207.0997 0001469  95.6646 264.4514 15.08833944 85712,6917.899,95.438,540.78,538.748,0.0
53823.0,STARLINK-4748,PAYLOAD,2024-03-29 14:30:34,15.0884685,0.0001357,53.2181,206.8031,78.861,281.2534,6.5063e-05,7.48e-06,0.0,0 STARLINK-4748,1 53823U 22114F   24089.60456201  .00000748  00000-0  65063-4 0  9991,2 53823  53.2181 206.8031 0001357  78.8610 281.2534 15.08846850 86261,6917.859,95.437,540.663,538.786,0.0
53823.0,STARLINK-4748,PAYLOAD,2024-03-30 11:10:35,15.0882261,0.0001585,53.218,202.9342,110.6512,249.465,-0.00011451,-2.109e-05,0.0,0 STARLINK-4748,1 53823U 22114F   24090.46569188 -.00002109  00000-0 -11451-3 0  9992,2 53823  53.2180 202.9342 0001585 110.6512 249.4650 15.08822610 85858,6917.934,95.439,540.895,538.702,0.0
53823.0,STARLINK-4748,PAYLOAD,2024-03-30 14:21:22,15.08823363,0.0001324,53.2182,202.3403,94.8894,265.225,-0.00010979,-2.034e-05,0.0,0 STARLINK-4748,1 53823U 22114F   24090.59817240 -.00002034  00000-0 -10979-3 0  9992,2 53823  53.2182 202.3403 0001324  94.8894 265.2250 15.08823363 86410,6917.931,95.439,540.712,538.88,0.0
53823.0,STARLINK-4748,PAYLOAD,2024-03-30 23:53:40,15.08834566,0.0001415,53.2201,200.5573,97.9208,262.1945,-1.4543e-05,-5.19e-06,0.0,0 STARLINK-4748,1 53823U 22114F   24090.99560569 -.00000519  00000-0 -14543-4 0  9993,2 53823  53.2201 200.5573 0001415  97.9208 262.1945 15.08834566 85934,6917.897,95.438,540.741,538.783,0.0
53823.0,STARLINK-4748,PAYLOAD,2024-03-31 14:12:08,15.08838998,0.0001484,53.2187,197.8838,102.437,257.6788,0.0001119,1.493e-05,0.0,0 STARLINK-4748,1 53823U 22114F   24091.59176204  .00001493  00000-0  11190-3 0  9993,2 53823  53.2187 197.8838 0001484 102.4370 257.6788 15.08838998 86564,6917.883,95.438,540.775,538.722,0.0
53823.0,STARLINK-4748,PAYLOAD,2024-03-31 17:22:54,15.08846338,0.0001419,53.2173,197.2857,83.1691,276.9463,0.00013643,1.884e-05,0.0,0 STARLINK-4748,1 53823U 22114F   24091.72423877  .00001884  00000-0  13643-3 0  9998,2 53823  53.2173 197.2857 0001419  83.1691 276.9463 15.08846338 86047,6917.861,95.437,540.708,538.744,0.0
53823.0,STARLINK-4748,PAYLOAD,2024-04-01 12:27:32,15.08824404,0.0001561,53.2176,193.7194,89.0837,271.0334,1.4993e-05,-4.9e-07,0.0,0 STARLINK-4748,1 53823U 22114F   24092.51913109 -.00000049  00000-0  14993-4 0  9991,2 53823  53.2176 193.7194 0001561  89.0837 271.0334 15.08824404 86166,6917.928,95.439,540.873,538.713,0.0
53823.0,STARLINK-4748,PAYLOAD,2024-04-01 14:02:56,15.088292,0.0001596,53.2184,193.4235,88.6054,271.5121,0.00011539,1.548e-05,0.0,0 STARLINK-4748,1 53823U 22114F   24092.58537066  .00001548  00000-0  11539-3 0  9998,2 53823  53.2184 193.4235 0001596  88.6054 271.5121 15.08829200 86711,6917.913,95.438,540.882,538.674,0.0
53823.0,STARLINK-4748,PAYLOAD,2024-04-01 17:13:42,15.08836863,0.000162,53.2177,192.8253,79.0806,281.0369,0.00015392,2.162e-05,0.0,0 STARLINK-4748,1 53823U 22114F   24092.71784789  .00002162  00000-0  15392-3 0  9993,2 53823  53.2177 192.8253 0001620  79.0806 281.0369 15.08836863 86198,6917.89,95.438,540.876,538.634,0.0
53823.0,STARLINK-4748,PAYLOAD,2024-04-02 12:18:20,15.0883518,0.0001645,53.2169,189.258,82.905,277.2129,0.0006641,0.00010296,0.0,0 STARLINK-4748,1 53823U 22114F   24093.51273286  .00010296  00000-0  66410-3 0  9991,2 53823  53.2169 189.2580 0001645  82.9050 277.2129 15.08835180 86858,6917.895,95.438,540.898,538.622,0.0
53823.0,STARLINK-4748,PAYLOAD,2024-04-02 13:53:43,15.08835461,0.0001709,53.2173,188.9613,76.9573,283.1609,0.0005763,8.895e-05,0.0,0 STARLINK-4748,1 53823U 22114F   24093.57897359  .00008895  00000-0  57630-3 0  9996,2 53823  53.2173 188.9613 0001709  76.9573 283.1609 15.08835461 86862,6917.894,95.438,540.942,538.577,0.0
53823.0,STARLINK-4748,PAYLOAD,2024-04-03 05:47:34,15.08850878,0.0001635,53.2161,185.9896,76.6815,283.4359,0.00060156,9.302e-05,0.0,0 STARLINK-4748,1 53823U 22114F   24094.24136948  .00009302  00000-0  60156-3 0  9992,2 53823  53.2161 185.9896 0001635  76.6815 283.4359 15.08850878 86429,6917.847,95.437,540.843,538.581,0.0
53823.0,STARLINK-4748,PAYLOAD,2024-04-03 12:09:06,15.08845627,0.0001471,53.2155,184.7988,82.6404,277.4755,0.00033576,5.061e-05,0.0,0 STARLINK-4748,1 53823U 22114F   24094.50632995  .00005061  00000-0  33576-3 0  9998,2 53823  53.2155 184.7988 0001471  82.6404 277.4755 15.08845627 87004,6917.863,95.437,540.746,538.711,0.0
53823.0,STARLINK-4748,PAYLOAD,2024-04-03 13:44:29,15.08847004,0.0001443,53.2156,184.5,82.0675,278.0481,0.00032123,4.829e-05,0.0,0 STARLINK-4748,1 53823U 22114F   24094.57256931  .00004829  00000-0  32123-3 0  9995,2 53823  53.2156 184.5000 0001443  82.0675 278.0481 15.08847004 86475,6917.859,95.437,540.722,538.726,0.0
